[{"OBJECT_NAME":"STARLINK-32588","OBJECT_ID":"2024-202X","EPOCH":"2026-03-09T11:42:14.202432","MEAN_MOTION":15.27569638,"ECCENTRICITY":9.127e-5,"INCLINATION":42.9971,"RA_OF_ASC_NODE":239.3906,"ARG_OF_PERICENTER":247.8575,"MEAN_ANOMALY":112.218,"EPHEMERIS_TYPE":0,"CLASSIFICATION_TYPE":"U","NORAD_CAT_ID":61866,"ELEMENT_SET_NO":999,"REV_AT_EPOCH":7530,"BSTAR":-3.1815962e-5,"MEAN_MOTION_DOT":-1.137e-5,"MEAN_MOTION_DDOT":0},{"OBJECT_NAME":"KUIPER-00276","OBJECT_ID":"2026-030AG","EPOCH":"2026-03-09T22:00:01.999584","MEAN_MOTION":15.30162454,"ECCENTRICITY":0.00186471,"INCLINATION":51.8824,"RA_OF_ASC_NODE":218.7283,"ARG_OF_PERICENTER":66.9346,"MEAN_ANOMALY":101.1527,"EPHEMERIS_TYPE":0,"CLASSIFICATION_TYPE":"U","NORAD_CAT_ID":67794,"ELEMENT_SET_NO":999,"REV_AT_EPOCH":482,"BSTAR":0.0021152378,"MEAN_MOTION_DOT":0.00063116,"MEAN_MOTION_DDOT":0}]
